STARLINK-4213           
1 52872U 22062AU  26068.17146670  .00002882  00000+0  19901-3 0  9992
2 52872  53.2196  16.4199 0001236  90.1927 269.9207 15.08848261205984
DISKSAT B               
1 67220U 25305B   26068.81497770  .00012481  00000+0  82401-3 0  9990
2 67220  45.0018 250.2098 0003783 311.4052  48.6498 15.07484556 12311
